FENGYUN 3C              
1 39260U 13052A   23025.22565828  .00000225  00000+0  13472-3 0  9999
2 39260  98.4378  46.9088 0011181   1.6695 358.4516 14.15982274483308
CASSIOPE                
1 39265U 13055A   23024.13598412  .00028322  00000+0  72059-3 0  9995
2 39265  80.9615  32.3690 0597242  21.6215 340.9079 14.45071650484107
ZACUBE-1 (TSHEPISOSAT)  
1 39417U 13066B   23024.84419075  .00006557  00000+0  78116-3 0  9997
2 39417  97.6678 351.8459 0057561  39.9821 320.5610 14.83449133495937
CINEMA-3 (KHUSAT-2)     
1 39426U 13066L   23025.05913404  .00002845  00000+0  43893-3 0  9996
2 39426  97.8204 320.6486 0100746 245.5329 113.5345 14.70766913492105
TRITON-1                
1 39427U 13066M   23024.79776164  .00004879  00000+0  75287-3 0  9998
2 39427  97.8305 316.2369 0108558 277.0386  81.8485 14.69882701491474
DELFI-N3XT              
1 39428U 13066N   23024.78794528  .00008467  00000+0  12657-2 0  9990
2 39428  97.8297 314.9484 0112796 289.9711  68.9377 14.70704891491225
GOMX-1                  
1 39430U 13066Q   23025.15882851  .00003209  00000+0  56864-3 0  9990
2 39430  97.7967 284.5803 0149057  65.6721 295.9965 14.60894370488657
BRITE-PL1 (LEM)         
1 39431U 13066R   23025.13441305  .00001561  00000+0  34030-3 0  9994
2 39431  97.6797 223.9184 0199495 261.5136  96.3405 14.47605842484630
ICUBE-1                 
1 39432U 13066S   23024.48024291  .00007795  00000+0  74036-3 0  9998
2 39432  97.4777  22.0485 0028370 242.9679 116.8645 14.93456271498884
HUMSAT-D                
1 39433U 13066T   23024.46879067  .00009497  00000+0  83678-3 0  9999
2 39433  97.4498  29.8629 0027517 213.1914 146.7583 14.96365708499425
VELOX-PII               
1 39438U 13066Y   23024.82908375  .00004426  00000+0  57091-3 0  9996
2 39438  97.7246 343.3826 0069951  95.5139 265.4057 14.79766972494863
FIRST-MOVE              
1 39439U 13066Z   23024.47315658  .00013265  00000+0  14555-2 0  9992
2 39439  97.6651 354.5949 0061071  34.2603 326.2529 14.86443202495940
CUBEBUG-2 (LO-74)       
1 39440U 13066AA  23024.45110845  .00004321  00000+0  57559-3 0  9998
2 39440  97.7568 338.1837 0078615 133.5381 227.2397 14.77993542494110
NEE-02 KRYSAOR          
1 39441U 13066AB  23023.84615100  .00003080  00000+0  42692-3 0  9998
2 39441  97.7675 334.6275 0080422 150.6510 209.9253 14.76441613493708
FUNCUBE-1 (AO-73)       
1 39444U 13066AE  23024.82031199  .00007453  00000+0  85990-3 0  9996
2 39444  97.6541 354.2764 0055785  27.0281 333.3820 14.84787561494942
HINCUBE                 
1 39445U 13066AF  23024.83495537  .00007572  00000+0  87818-3 0  9991
2 39445  97.6557 354.0838 0055972  29.3696 331.0645 14.84560698494471
UWE-3                   
1 39446U 13066AG  23024.15618175  .00005679  00000+0  71702-3 0  9993
2 39446  97.7175 344.1747 0069032  89.6331 271.2792 14.80588173493690
AIST-1 (RS-41)          
1 39492U 13078C   23025.26818154  .00002629  00000+0  27613-3 0  9993
2 39492  82.4181  24.3095 0021284  90.8511 269.5123 14.88963690492789
SPROUT                  
1 39770U 14029E   23025.16126419  .00023001  00000+0  20958-2 0  9995
2 39770  97.9573 149.2661 0008366  70.7897 289.4228 14.95113192470730
UNISAT-6                
1 40012U 14033C   23024.50396261  .00004653  00000+0  66949-3 0  9995
2 40012  97.6612 205.8019 0056811 161.4768 198.8528 14.75717224462574
BUGSAT-1 (TITA)         
1 40014U 14033E   23024.55375870  .00006272  00000+0  53283-3 0  9991
2 40014  98.1446  37.1858 0031070  26.5142 333.7657 14.97889042469225
DUCHIFAT-1              
1 40021U 14033M   23024.80807273  .00010481  00000+0  96256-3 0  9998
2 40021  98.0416 344.6312 0012518  36.5224 323.6847 14.94965440467746
NANOSATC-BR1            
1 40024U 14033Q   23024.80280956  .00009360  00000+0  89361-3 0  9997
2 40024  98.0126 336.7474 0012517  44.6652 315.5573 14.93463104467512
QB50P1                  
1 40025U 14033R   23024.78014525  .00007721  00000+0  76722-3 0  9998
2 40025  97.9833 329.3199 0013054  54.0501 306.1926 14.91926307467259
DTUSAT-2                
1 40030U 14033W   23024.78681670  .00006854  00000+0  69320-3 0  9997
2 40030  97.9569 323.7920 0012690  51.2499 308.9851 14.91265830467121
QB50P2                  
1 40032U 14033Y   23024.76243933  .00006954  00000+0  70355-3 0  9994
2 40032  97.9570 323.7836 0012504  52.1650 308.0698 14.91249105467109
POLYITAN-1              
1 40042U 14033AJ  23024.84019624  .00009184  00000+0  90308-3 0  9990
2 40042  97.9944 330.9218 0014865  45.4020 314.8409 14.92270536467150
TIGRISAT                
1 40043U 14033AK  23025.08748660  .00003593  00000+0  51838-3 0  9990
2 40043  97.6548 207.4977 0058896 156.8953 203.4926 14.75663061462604
AISAT                   
1 40054U 14034B   23025.08425329  .00007248  00000+0  93636-3 0  9990
2 40054  98.3650 210.7431 0011907 330.2126  29.8406 14.81219378462262
CANX-4                  
1 40055U 14034C   23025.00570719  .00002235  00000+0  33284-3 0  9991
2 40055  98.3752 194.5930 0014435  17.5991 342.5715 14.75903847461422
CANX-5                  
1 40056U 14034D   23024.47032755  .00002388  00000+0  35510-3 0  9998
2 40056  98.3755 194.0200 0014475  19.3996 340.7760 14.75901864461348
VELOX-I                 
1 40057U 14034E   23025.19217495  .00006190  00000+0  81819-3 0  9993
2 40057  98.3691 211.8931 0010292 346.4363  13.6536 14.80330581462269
METEOR-M 2              
1 40069U 14037A   23025.16761861  .00000128  00000+0  78305-4 0  9999
2 40069  98.4256  37.7709 0006582  45.9999 314.1718 14.20739656443340
DX1                     
1 40071U 14037C   23025.12224007  .00002640  00000+0  33717-3 0  9992
2 40071  98.3798 269.5293 0007747 334.4625  25.6207 14.82349315462178
UKUBE-1                 
1 40074U 14037F   23025.17568606  .00006783  00000+0  77091-3 0  9991
2 40074  98.3570 282.2331 0003383 307.1328  52.9530 14.86610799462996
FIREBIRD 3              
1 40377U 15003B   23024.74331683  .00065068  00000+0  13843-2 0  9991
2 40377  99.0779 305.3628 0076986 352.1760   7.8274 15.41567389442356
FIREBIRD 4              
1 40378U 15003C   23024.29949569  .00072739  00000+0  15422-2 0  9998
2 40378  99.0791 305.0858 0077172 353.2153   6.8037 15.41620454442291
GRIFEX                  
1 40379U 15003D   23024.79336011  .00031737  00000+0  93965-3 0  9998
2 40379  99.0845 288.4602 0102477  42.4887 318.4222 15.29697238441388
CP10 (EXOCUBE)          
1 40380U 15003E   23024.24228762  .00023289  00000+0  78883-3 0  9998
2 40380  99.0938 279.2574 0114212  72.5362 288.8317 15.24470389440746
DEORBITSAIL             
1 40719U 15032E   23024.21379000  .00007027  00000+0  93903-3 0  9997
2 40719  97.7537 259.9785 0016097  12.8941 347.2679 14.79730864406517
NUDT-PHONESAT           
1 40900U 15049B   23025.06885479  .00149510  00000+0  20169-2 0  9990
2 40900  97.3778  51.4162 0005184 177.5373 241.8757 15.57272425408798
XW-2A                   
1 40903U 15049E   23025.14219199  .00098484  00000+0  80736-3 0  9992
2 40903  97.1452  90.5056 0006534  18.2756  11.5815 15.70163128413810
XW-2C                   
1 40906U 15049H   23025.20202755  .00015275  00000+0  66705-3 0  9999
2 40906  97.4957  32.2823 0011037 310.3838 114.1942 15.22161725406611
XW-2D                   
1 40907U 15049J   23024.96978663  .00017827  00000+0  75249-3 0  9998
2 40907  97.4943  32.2780 0010125 305.7422 107.8825 15.23291567406644
LILACSAT-2              
1 40908U 15049K   23025.06162993  .00008498  00000+0  42620-3 0  9993
2 40908  97.5227  28.7573 0013647 335.5365  96.0007 15.17501758406077
XW-2E                   
1 40909U 15049L   23025.00184329  .00028826  00000+0  10155-2 0  9999
2 40909  97.4607  37.5142 0008149 273.3257 138.7646 15.29224514407191
XW-2F                   
1 40910U 15049M   23025.00855425  .00028722  00000+0  10293-2 0  9991
2 40910  97.4698  36.7166 0009031 275.6030 136.9366 15.28659618406953
XW-2B                   
1 40911U 15049N   23025.08239153  .00017574  00000+0  74519-3 0  9999
2 40911  97.4922  32.9072 0010134 306.7016 124.1513 15.23139803406546
KAITUO 1B               
1 40912U 15049P   23025.03891441  .00033467  00000+0  10588-2 0  9993
2 40912  97.4286  41.1244 0009297 227.8772 190.6488 15.32661350407607
LAPAN-A2                
1 40931U 15052B   23024.41030053  .00001595  00000+0  13186-3 0  9998
2 40931   5.9979  32.7120 0013410  58.0357 302.1300 14.76997418396069
LQSAT                   
1 40958U 15057A   23025.05764336  .00001243  00000+0  19776-3 0  9992
2 40958  97.7220  66.0138 0017362 330.7199  29.3049 14.73603985392614
ATHENOXAT 1             
1 41168U 15077C   23025.23217840  .00063928  00000+0  20336-2 0  9992
2 41168  14.9874 237.7339 0006129 126.0436  21.1142 15.30753273394204
GALASSIA                
1 41170U 15077E   23025.23099748  .00030321  00000+0  10721-2 0  9998
2 41170  14.9863 232.5819 0008298 154.3341 205.7394 15.27020372394245
VELOX-II                
1 41171U 15077F   23025.14428233  .00023530  00000+0  10094-2 0  9991
2 41171  14.9915 319.8532 0007312 325.3704  34.6141 15.20416554393404
CHUBUSAT-2              
1 41338U 16012B   23023.79355469  .00005761  00000+0  41677-3 0  9993
2 41338  31.0039  59.9744 0013144 180.4773 179.5852 15.02486813380633
CHUBUSAT-3              
1 41339U 16012C   23025.11641576  .00005344  00000+0  38618-3 0  9997
2 41339  31.0119  48.4755 0012842 201.6431 199.1127 15.02487986380836
HORYU-4                 
1 41340U 16012D   23025.09392074  .00009839  00000+0  66497-3 0  9991
2 41340  31.0057  21.9785 0012931 247.4066 112.5203 15.05246294381124
OUFTI-1                 
1 41458U 16025C   23023.75473295  .00039459  00000+0  13951-2 0  9998
2 41458  98.1897 213.3372 0122256 232.8323 126.1699 15.22173354370993
E-ST@R-II               
1 41459U 16025D   23025.22212892  .00037416  00000+0  13779-2 0  9996
2 41459  98.1906 212.9978 0127131 233.5346 125.4080 15.20385840371105
